[{"OBJECT_NAME":"STARLINK-5807","OBJECT_ID":"2023-028BC","EPOCH":"2026-03-09T17:57:40.405248","MEAN_MOTION":14.98325973,"ECCENTRICITY":0.00030261,"INCLINATION":70.0005,"RA_OF_ASC_NODE":204.3602,"ARG_OF_PERICENTER":266.277,"MEAN_ANOMALY":93.8043,"EPHEMERIS_TYPE":0,"CLASSIFICATION_TYPE":"U","NORAD_CAT_ID":55791,"ELEMENT_SET_NO":999,"REV_AT_EPOCH":16703,"BSTAR":0.00010876269,"MEAN_MOTION_DOT":1.205e-5,"MEAN_MOTION_DDOT":0},{"OBJECT_NAME":"CZ-6A DEB","OBJECT_ID":"2022-151VS","EPOCH":"2026-03-09T04:51:15.060960","MEAN_MOTION":14.9137966,"ECCENTRICITY":0.00559122,"INCLINATION":98.6335,"RA_OF_ASC_NODE":146.9052,"ARG_OF_PERICENTER":180.6585,"MEAN_ANOMALY":179.4567,"EPHEMERIS_TYPE":0,"CLASSIFICATION_TYPE":"U","NORAD_CAT_ID":55201,"ELEMENT_SET_NO":999,"REV_AT_EPOCH":17149,"BSTAR":0.0042126159,"MEAN_MOTION_DOT":0.00043496,"MEAN_MOTION_DDOT":0}]
